GLOBALSTAR M063 [+]     
1 26081U 00008A   23358.58966215 -.00000097  00000+0 -21394-3 0  9997
2 26081  51.9957  95.2825 0004057   8.7280  93.9403 11.86148622 93422
GLOBALSTAR M062 [-]     
1 26082U 00008B   23358.87069878  .00000003  00000+0  72542-3 0  9995
2 26082  51.9836 244.6351 0008084  43.4531  36.1625 12.43424184429402
GLOBALSTAR M060 [-]     
1 26083U 00008C   23358.68870286 -.00000028  00000+0  62542-3 0  9995
2 26083  52.0007 128.7114 0004516 106.1747 358.0918 12.17621583 86522
GLOBALSTAR M064 [-]     
1 26084U 00008D   23358.88350440 -.00000036  00000+0  67131-3 0  9991
2 26084  51.9998 199.7104 0002789  92.4958 267.6194 11.88514022102850
GLOBALSTAR M065 [+]     
1 31571U 07020A   23358.52311639 -.00000082  00000+0  12136-3 0  9993
2 31571  51.9904  71.8021 0010141 187.3079 276.2191 12.61960990765142
GLOBALSTAR M069 [+]     
1 31573U 07020C   23358.40080479 -.00000062  00000+0  23405-3 0  9996
2 31573  51.9972  28.2295 0000146 211.2664 251.1968 12.62262747766252
GLOBALSTAR M072 [+]     
1 31574U 07020D   23358.55024972 -.00000110  00000+0 -35575-4 0  9996
2 31574  52.0076 123.5539 0001367 124.4517 315.8566 12.62269394764703
GLOBALSTAR M071 [P]     
1 31576U 07020F   23358.52034771 -.00000047  00000+0  31609-3 0  9994
2 31576  52.0087  32.8938 0000292  31.7027 133.7767 12.62263695427450
